STARLINK-3782           
1 52273U 22041N   26068.52249851 -.00000357  00000+0 -43246-5 0  9996
2 52273  53.2159 100.2550 0001478  76.1639 283.9517 15.08835464214478
MUSAT-2                 
1 59099U 24043B   26068.91945897  .00010059  00000+0  67214-3 0  9996
2 59099  97.8438 205.4399 0006495 314.3478  45.7216 15.07177436110131
