[{"OBJECT_NAME":"STARLINK-3782","OBJECT_ID":"2022-041N","EPOCH":"2026-03-09T12:32:23.871264","MEAN_MOTION":15.08835464,"ECCENTRICITY":0.0001478,"INCLINATION":53.2159,"RA_OF_ASC_NODE":100.255,"ARG_OF_PERICENTER":76.1639,"MEAN_ANOMALY":283.9517,"EPHEMERIS_TYPE":0,"CLASSIFICATION_TYPE":"U","NORAD_CAT_ID":52273,"ELEMENT_SET_NO":999,"REV_AT_EPOCH":21447,"BSTAR":-4.3246e-6,"MEAN_MOTION_DOT":-3.57e-6,"MEAN_MOTION_DDOT":0},{"OBJECT_NAME":"MUSAT-2","OBJECT_ID":"2024-043B","EPOCH":"2026-03-09T22:04:01.255008","MEAN_MOTION":15.07177436,"ECCENTRICITY":0.0006495,"INCLINATION":97.8438,"RA_OF_ASC_NODE":205.4399,"ARG_OF_PERICENTER":314.3478,"MEAN_ANOMALY":45.7216,"EPHEMERIS_TYPE":0,"CLASSIFICATION_TYPE":"U","NORAD_CAT_ID":59099,"ELEMENT_SET_NO":999,"REV_AT_EPOCH":11013,"BSTAR":0.00067214198,"MEAN_MOTION_DOT":0.00010059,"MEAN_MOTION_DDOT":0}]
